SL-14 R/B               
1 11267U 79011B   26096.01173156  .00000885  00000+0  84805-4 0  9991
2 11267  82.5222  70.6369 0015202 331.4933  28.5454 14.91947927532851
SL-8 R/B                
1 11574U 79089B   26096.28103438  .00000403  00000+0  12979-3 0  9990
2 11574  74.0705  39.9658 0016449 208.7038 151.3215 14.42370580440083
SL-14 R/B               
1 11672U 80005B   26095.97565104  .00000740  00000+0  72195-4 0  9997
2 11672  82.5107 281.3452 0017185  74.0919 286.2192 14.90964433480554
SL-8 R/B                
1 12139U 81003B   26095.94392717  .00024588  00000+0  61099-3 0  9996
2 12139  82.9354 264.7957 0259399  83.9887 279.0838 15.12270787318794
SL-3 R/B                
1 12465U 81046B   26096.22750004  .00013918  00000+0  31606-3 0  9990
2 12465  81.2296 256.6526 0018057 284.0727  75.8508 15.42727166442678
SL-3 R/B                
1 12904U 81103B   26096.26133701  .00005889  00000+0  25838-3 0  9993
2 12904  81.1604 181.0877 0013175 188.7787 171.3216 15.21722910977423
SL-3 R/B                
1 13068U 82013B   26096.25857232  .00004247  00000+0  18203-3 0  9992
2 13068  81.1718 128.4514 0023550  87.6071 272.7857 15.22275263408549
SL-3 R/B                
1 13154U 82039B   26096.22034781  .00003198  00000+0  19238-3 0  9992
2 13154  81.1550 184.2146 0028105 232.4439 127.4233 15.10249364385794
SL-3 R/B                
1 13403U 82079B   26096.22512368  .00005658  00000+0  22248-3 0  9993
2 13403  81.1468 160.5617 0025331  74.4958 285.9070 15.25177934381892
SL-14 R/B               
1 13553U 82092B   26096.10359733  .00000535  00000+0  57282-4 0  9992
2 13553  82.5649 115.7515 0019599 206.1826 211.3224 14.86692811333006
SL-3 R/B                
1 13819U 83010B   26096.05972738  .00017142  00000+0  33356-3 0  9995
2 13819  81.1028 328.6697 0015340 315.2094  44.7911 15.47315309362175
SL-3 R/B                
1 14208U 83075B   26096.19484307  .00012462  00000+0  32075-3 0  9991
2 14208  97.6138 101.8280 0022935 128.3971 231.9339 15.39116303334386
COSMOS 1536             
1 14699U 84013A   26095.96814212  .00008588  00000+0  34985-3 0  9990
2 14699  82.5424  80.7186 0014336 178.2607 181.8683 15.24234408276771
SL-14 R/B               
1 14820U 84027B   26096.30122918  .00000699  00000+0  77130-4 0  9990
2 14820  82.5430 219.1164 0016696 239.5816 120.3752 14.86008937251739
SL-8 R/B                
1 15483U 85006B   26096.27401497  .00000360  00000+0  12802-3 0  9991
2 15483  74.0462 210.3892 0017424 119.7611 265.9525 14.37804046157997
SL-12 R/B(2)            
1 15772U 85042D   26096.04844505  .00000134  00000+0  81682-4 0  9990
2 15772  71.1103  29.9257 0032867  82.6979 286.4787 14.21990856118285
