[ {"OBJECT_NAME": "SL-14 R/B", "OBJECT_ID": "1979-011B", "EPOCH": "2026-04-06T00:16:53.606784", "MEAN_MOTION": 14.91947927, "ECCENTRICITY": 0.00152029, "INCLINATION": 82.5222, "RA_OF_ASC_NODE": 70.6369, "ARG_OF_PERICENTER": 331.4933, "MEAN_ANOMALY": 28.5454, "EPHEMERIS_TYPE": 0, "CLASSIFICATION_TYPE": "U", "NORAD_CAT_ID": 11267, "ELEMENT_SET_NO": 999, "REV_AT_EPOCH": 53285, "BSTAR": 8.4804667e-05, "MEAN_MOTION_DOT": 8.85e-06, "MEAN_MOTION_DDOT": 0}, {"OBJECT_NAME": "SL-8 R/B", "OBJECT_ID": "1979-089B", "EPOCH": "2026-04-06T06:44:41.370432", "MEAN_MOTION": 14.4237058, "ECCENTRICITY": 0.00164497, "INCLINATION": 74.0705, "RA_OF_ASC_NODE": 39.9658, "ARG_OF_PERICENTER": 208.7038, "MEAN_ANOMALY": 151.3215, "EPHEMERIS_TYPE": 0, "CLASSIFICATION_TYPE": "U", "NORAD_CAT_ID": 11574, "ELEMENT_SET_NO": 999, "REV_AT_EPOCH": 44008, "BSTAR": 0.00012979332, "MEAN_MOTION_DOT": 4.03e-06, "MEAN_MOTION_DDOT": 0}, {"OBJECT_NAME": "SL-14 R/B", "OBJECT_ID": "1980-005B", "EPOCH": "2026-04-05T23:24:56.249856", "MEAN_MOTION": 14.90964433, "ECCENTRICITY": 0.00171853, "INCLINATION": 82.5107, "RA_OF_ASC_NODE": 281.3452, "ARG_OF_PERICENTER": 74.0919, "MEAN_ANOMALY": 286.2192, "EPHEMERIS_TYPE": 0, "CLASSIFICATION_TYPE": "U", "NORAD_CAT_ID": 11672, "ELEMENT_SET_NO": 999, "REV_AT_EPOCH": 48055, "BSTAR": 7.2195463e-05, "MEAN_MOTION_DOT": 7.4e-06, "MEAN_MOTION_DDOT": 0}, {"OBJECT_NAME": "SL-8 R/B", "OBJECT_ID": "1981-003B", "EPOCH": "2026-04-05T22:39:15.307488", "MEAN_MOTION": 15.12270787, "ECCENTRICITY": 0.02593998, "INCLINATION": 82.9354, "RA_OF_ASC_NODE": 264.7957, "ARG_OF_PERICENTER": 83.9887, "MEAN_ANOMALY": 279.0838, "EPHEMERIS_TYPE": 0, "CLASSIFICATION_TYPE": "U", "NORAD_CAT_ID": 12139, "ELEMENT_SET_NO": 999, "REV_AT_EPOCH": 31879, "BSTAR": 0.000610985, "MEAN_MOTION_DOT": 0.00024588, "MEAN_MOTION_DDOT": 0}, {"OBJECT_NAME": "SL-3 R/B", "OBJECT_ID": "1981-046B", "EPOCH": "2026-04-06T05:27:36.003456", "MEAN_MOTION": 15.42727166, "ECCENTRICITY": 0.0018057, "INCLINATION": 81.2296, "RA_OF_ASC_NODE": 256.6526, "ARG_OF_PERICENTER": 284.0727, "MEAN_ANOMALY": 75.8508, "EPHEMERIS_TYPE": 0, "CLASSIFICATION_TYPE": "U", "NORAD_CAT_ID": 12465, "ELEMENT_SET_NO": 999, "REV_AT_EPOCH": 44267, "BSTAR": 0.00031605532, "MEAN_MOTION_DOT": 0.00013918, "MEAN_MOTION_DDOT": 0}, {"OBJECT_NAME": "SL-3 R/B", "OBJECT_ID": "1981-103B", "EPOCH": "2026-04-06T06:16:19.517664", "MEAN_MOTION": 15.2172291, "ECCENTRICITY": 0.0013175, "INCLINATION": 81.1604, "RA_OF_ASC_NODE": 181.0877, "ARG_OF_PERICENTER": 188.7787, "MEAN_ANOMALY": 171.3216, "EPHEMERIS_TYPE": 0, "CLASSIFICATION_TYPE": "U", "NORAD_CAT_ID": 12904, "ELEMENT_SET_NO": 999, "REV_AT_EPOCH": 97742, "BSTAR": 0.00025837629, "MEAN_MOTION_DOT": 5.889e-05, "MEAN_MOTION_DDOT": 0}, {"OBJECT_NAME": "SL-3 R/B", "OBJECT_ID": "1982-013B", "EPOCH": "2026-04-06T06:12:20.648448", "MEAN_MOTION": 15.22275263, "ECCENTRICITY": 0.00235506, "INCLINATION": 81.1718, "RA_OF_ASC_NODE": 128.4514, "ARG_OF_PERICENTER": 87.6071, "MEAN_ANOMALY": 272.7857, "EPHEMERIS_TYPE": 0, "CLASSIFICATION_TYPE": "U", "NORAD_CAT_ID": 13068, "ELEMENT_SET_NO": 999, "REV_AT_EPOCH": 40854, "BSTAR": 0.00018203345, "MEAN_MOTION_DOT": 4.247e-05, "MEAN_MOTION_DDOT": 0}, {"OBJECT_NAME": "SL-3 R/B", "OBJECT_ID": "1982-039B", "EPOCH": "2026-04-06T05:17:18.050784", "MEAN_MOTION": 15.10249364, "ECCENTRICITY": 0.0028105, "INCLINATION": 81.155, "RA_OF_ASC_NODE": 184.2146, "ARG_OF_PERICENTER": 232.4439, "MEAN_ANOMALY": 127.4233, "EPHEMERIS_TYPE": 0, "CLASSIFICATION_TYPE": "U", "NORAD_CAT_ID": 13154, "ELEMENT_SET_NO": 999, "REV_AT_EPOCH": 38579, "BSTAR": 0.00019238485, "MEAN_MOTION_DOT": 3.198e-05, "MEAN_MOTION_DDOT": 0}, {"OBJECT_NAME": "SL-3 R/B", "OBJECT_ID": "1982-079B", "EPOCH": "2026-04-06T05:24:10.685952", "MEAN_MOTION": 15.25177934, "ECCENTRICITY": 0.00253314, "INCLINATION": 81.1468, "RA_OF_ASC_NODE": 160.5617, "ARG_OF_PERICENTER": 74.4958, "MEAN_ANOMALY": 285.907, "EPHEMERIS_TYPE": 0, "CLASSIFICATION_TYPE": "U", "NORAD_CAT_ID": 13403, "ELEMENT_SET_NO": 999, "REV_AT_EPOCH": 38189, "BSTAR": 0.00022248453, "MEAN_MOTION_DOT": 5.658e-05, "MEAN_MOTION_DDOT": 0}, {"OBJECT_NAME": "SL-14 R/B", "OBJECT_ID": "1982-092B", "EPOCH": "2026-04-06T02:29:10.809312", "MEAN_MOTION": 14.86692811, "ECCENTRICITY": 0.00195994, "INCLINATION": 82.5649, "RA_OF_ASC_NODE": 115.7515, "ARG_OF_PERICENTER": 206.1826, "MEAN_ANOMALY": 211.3224, "EPHEMERIS_TYPE": 0, "CLASSIFICATION_TYPE": "U", "NORAD_CAT_ID": 13553, "ELEMENT_SET_NO": 999, "REV_AT_EPOCH": 33300, "BSTAR": 5.7282352e-05, "MEAN_MOTION_DOT": 5.35e-06, "MEAN_MOTION_DDOT": 0}, {"OBJECT_NAME": "SL-3 R/B", "OBJECT_ID": "1983-010B", "EPOCH": "2026-04-06T01:26:00.445632", "MEAN_MOTION": 15.47315309, "ECCENTRICITY": 0.00153408, "INCLINATION": 81.1028, "RA_OF_ASC_NODE": 328.6697, "ARG_OF_PERICENTER": 315.2094, "MEAN_ANOMALY": 44.7911, "EPHEMERIS_TYPE": 0, "CLASSIFICATION_TYPE": "U", "NORAD_CAT_ID": 13819, "ELEMENT_SET_NO": 999, "REV_AT_EPOCH": 36217, "BSTAR": 0.00033356133, "MEAN_MOTION_DOT": 0.00017142, "MEAN_MOTION_DDOT": 0}, {"OBJECT_NAME": "SL-3 R/B", "OBJECT_ID": "1983-075B", "EPOCH": "2026-04-06T04:40:34.441248", "MEAN_MOTION": 15.39116303, "ECCENTRICITY": 0.0022935, "INCLINATION": 97.6138, "RA_OF_ASC_NODE": 101.828, "ARG_OF_PERICENTER": 128.3971, "MEAN_ANOMALY": 231.9339, "EPHEMERIS_TYPE": 0, "CLASSIFICATION_TYPE": "U", "NORAD_CAT_ID": 14208, "ELEMENT_SET_NO": 999, "REV_AT_EPOCH": 33438, "BSTAR": 0.00032075293, "MEAN_MOTION_DOT": 0.00012462, "MEAN_MOTION_DDOT": 0}, {"OBJECT_NAME": "COSMOS 1536", "OBJECT_ID": "1984-013A", "EPOCH": "2026-04-05T23:14:07.479168", "MEAN_MOTION": 15.24234408, "ECCENTRICITY": 0.00143368, "INCLINATION": 82.5424, "RA_OF_ASC_NODE": 80.7186, "ARG_OF_PERICENTER": 178.2607, "MEAN_ANOMALY": 181.8683, "EPHEMERIS_TYPE": 0, "CLASSIFICATION_TYPE": "U", "NORAD_CAT_ID": 14699, "ELEMENT_SET_NO": 999, "REV_AT_EPOCH": 27677, "BSTAR": 0.00034984986, "MEAN_MOTION_DOT": 8.588e-05, "MEAN_MOTION_DDOT": 0}, {"OBJECT_NAME": "SL-14 R/B", "OBJECT_ID": "1984-027B", "EPOCH": "2026-04-06T07:13:46.201152", "MEAN_MOTION": 14.86008937, "ECCENTRICITY": 0.0016696, "INCLINATION": 82.543, "RA_OF_ASC_NODE": 219.1164, "ARG_OF_PERICENTER": 239.5816, "MEAN_ANOMALY": 120.3752, "EPHEMERIS_TYPE": 0, "CLASSIFICATION_TYPE": "U", "NORAD_CAT_ID": 14820, "ELEMENT_SET_NO": 999, "REV_AT_EPOCH": 25173, "BSTAR": 7.7130018e-05, "MEAN_MOTION_DOT": 6.99e-06, "MEAN_MOTION_DDOT": 0}, {"OBJECT_NAME": "SL-8 R/B", "OBJECT_ID": "1985-006B", "EPOCH": "2026-04-06T06:34:34.893408", "MEAN_MOTION": 14.37804046, "ECCENTRICITY": 0.00174249, "INCLINATION": 74.0462, "RA_OF_ASC_NODE": 210.3892, "ARG_OF_PERICENTER": 119.7611, "MEAN_ANOMALY": 265.9525, "EPHEMERIS_TYPE": 0, "CLASSIFICATION_TYPE": "U", "NORAD_CAT_ID": 15483, "ELEMENT_SET_NO": 999, "REV_AT_EPOCH": 15799, "BSTAR": 0.00012802298, "MEAN_MOTION_DOT": 3.6e-06, "MEAN_MOTION_DDOT": 0}, {"OBJECT_NAME": "SL-12 R/B(2)", "OBJECT_ID": "1985-042D", "EPOCH": "2026-04-06T01:09:45.652320", "MEAN_MOTION": 14.21990856, "ECCENTRICITY": 0.00328675, "INCLINATION": 71.1103, "RA_OF_ASC_NODE": 29.9257, "ARG_OF_PERICENTER": 82.6979, "MEAN_ANOMALY": 286.4787, "EPHEMERIS_TYPE": 0, "CLASSIFICATION_TYPE": "U", "NORAD_CAT_ID": 15772, "ELEMENT_SET_NO": 999, "REV_AT_EPOCH": 11828, "BSTAR": 8.1681587e-05, "MEAN_MOTION_DOT": 1.34e-06, "MEAN_MOTION_DDOT": 0}]